[{"OBJECT_NAME":"STARLINK-32135","OBJECT_ID":"2024-131Y","EPOCH":"2026-03-09T23:21:53.868960","MEAN_MOTION":15.30191246,"ECCENTRICITY":0.00013264,"INCLINATION":53.1616,"RA_OF_ASC_NODE":50.994,"ARG_OF_PERICENTER":82.1119,"MEAN_ANOMALY":278.0032,"EPHEMERIS_TYPE":0,"CLASSIFICATION_TYPE":"U","NORAD_CAT_ID":60277,"ELEMENT_SET_NO":999,"REV_AT_EPOCH":9176,"BSTAR":3.5433798e-5,"MEAN_MOTION_DOT":6.9e-6,"MEAN_MOTION_DDOT":0},{"OBJECT_NAME":"YAM-7","OBJECT_ID":"2024-149AN","EPOCH":"2026-03-09T17:13:55.117920","MEAN_MOTION":15.30304554,"ECCENTRICITY":0.00019733,"INCLINATION":97.3828,"RA_OF_ASC_NODE":149.4631,"ARG_OF_PERICENTER":296.5121,"MEAN_ANOMALY":63.5918,"EPHEMERIS_TYPE":0,"CLASSIFICATION_TYPE":"U","NORAD_CAT_ID":60504,"ELEMENT_SET_NO":999,"REV_AT_EPOCH":8683,"BSTAR":0.00030984439,"MEAN_MOTION_DOT":9.009e-5,"MEAN_MOTION_DDOT":0}]
